{
  "norad_id": 68724,
  "name": "STARLINK-37274",
  "history": [
    {
      "epoch": "2026-04-23T13:49:00.302880Z",
      "apogee_km": 310.1103352812579,
      "perigee_km": 308.93451100148104,
      "latitude_deg": -3.734002264379167e-05,
      "longitude_deg": 136.93075495189362,
      "height_km": 310.0717790266995,
      "semi_major_axis_km": 6687.659423141369,
      "eccentricity": 8.791e-05,
      "inclination_deg": 53.1585,
      "raan_deg": 195.803,
      "arg_perigee_deg": 50.8047,
      "mean_anomaly_deg": 309.3056,
      "mean_motion_rev_day": 15.87418875
    }
  ]
}