STARLINK-37274          
1 68724U 26081AB  26113.57569795 -.00706758  00000+0 -28323-2 0  9994
2 68724  53.1585 195.8030 0000879  50.8047 309.3056 15.87418875  1472
